STARLINK-5615           
1 55425U 23014AL  26197.88581191 -.00000129  00000+0 -30237-5 0  9990
2 55425  70.0003 118.7438 0002763 269.1048  90.9794 14.98331095190914
STARLINK-5638           
1 55426U 23014AM  26198.16955103 -.00000121  00000+0 -23211-5 0  9997
2 55426  70.0001 118.1284 0002573 267.2284  92.8581 14.98328611190955
STARLINK-5064           
1 55428U 23014AP  26198.17789429 -.00000804  00000+0 -59550-4 0  9998
2 55428  70.0001 118.1586 0002975 258.6980 101.3845 14.98336868190957
STARLINK-5645           
1 55429U 23014AQ  26197.89834870  .00000923  00000+0  85104-4 0  9992
2 55429  70.0001 118.7879 0002877 260.0700 100.0135 14.98334533190918
STARLINK-5642           
1 55430U 23014AR  26197.89020826 -.00000127  00000+0 -28084-5 0  9995
2 55430  69.9999 138.6151 0002984 269.0696  91.0122 14.98329606190425
STARLINK-5643           
1 55431U 23014AS  26197.90668436 -.00001813  00000+0 -14423-3 0  9996
2 55431  69.9995 118.8166 0003086 270.2833  89.7972 14.98323173190913
STARLINK-5637           
1 55432U 23014AT  26197.89872343 -.00000488  00000+0 -33119-4 0  9990
2 55432  70.0002 138.6460 0003343 272.9911  87.0865 14.98337932190421
STARLINK-5570           
1 55433U 23014AU  26197.88603372 -.00000328  00000+0 -19705-4 0  9992
2 55433  70.0001 138.6009 0003020 265.2505  94.8309 14.98332316190426
STARLINK-5621           
1 55434U 23014AV  26197.90690609 -.00000184  00000+0 -75933-5 0  9991
2 55434  70.0000 138.6740 0002856 268.4366  91.6466 14.98328262190428
STARLINK-5626           
1 55435U 23014AW  26197.89855278  .00000423  00000+0  43255-4 0  9990
2 55435  70.0001 138.6461 0002964 271.9392  88.1427 14.98329122190422
STARLINK-5640           
1 55436U 23014AX  26197.91107852  .00000357  00000+0  37715-4 0  9992
2 55436  70.0001 138.6891 0002862 267.4479  92.6353 14.98330974190428
STARLINK-5074           
1 55438U 23014AZ  26198.16095571  .00002388  00000+0  20779-3 0  9993
2 55438  70.0001  97.8419 0002503 257.1401 102.9478 14.98336059191452
STARLINK-5634           
1 55439U 23014BA  26197.91527417 -.00001701  00000+0 -13486-3 0  9992
2 55439  70.0002 138.7048 0003186 264.5656  95.5140 14.98314189190428
APSTAR-6E SPS           
1 55447U 23005C   26198.09031738  .00000043  00000+0  45816-2 0  9994
2 55447  28.6439 257.5150 2270962 314.1276  29.3029  7.60564931 96142
STARLINK-5699           
1 55449U 23015A   26197.66580919  .00000250  00000+0  18622-4 0  9996
2 55449  43.0046 320.6505 0001552 297.2664  62.8030 15.27580506191386
STARLINK-5686           
1 55450U 23015B   26197.40041573 -.00001429  00000+0 -42417-4 0  9998
2 55450  43.0048 322.1008 0001615 288.0832  71.9843 15.27581180191348
STARLINK-5656           
1 55451U 23015C   26197.66968094  .00001153  00000+0  51431-4 0  9991
2 55451  43.0044 320.6781 0001875 276.4519  83.6119 15.27581328190447
STARLINK-5683           
1 55452U 23015D   26197.67737603  .00000666  00000+0  33736-4 0  9999
2 55452  43.0039 320.7269 0001672 284.4260  75.6406 15.27576647190449
STARLINK-5684           
1 55453U 23015E   26197.36700185  .00000149  00000+0  14934-4 0  9996
2 55453  43.0030 321.8468 0001607 258.4331 101.6340 15.27577514190409
STARLINK-5636           
1 55454U 23015F   26197.70421470  .00000946  00000+0  43889-4 0  9998
2 55454  43.0039 320.0697 0001209 273.3288  86.7426 15.27577126190451
STARLINK-5680           
1 55455U 23015G   26197.80429640  .00001078  00000+0  48725-4 0  9998
2 55455  43.0045 319.9674 0002157 278.7951  81.2656 15.27579527190463
STARLINK-5058           
1 55456U 23015H   26197.37471087 -.00000309  00000+0 -17132-5 0  9990
2 55456  43.0031 321.9034 0001341 258.2923 101.7779 15.27577058190403
STARLINK-5682           
1 55457U 23015J   26197.63240752 -.00000083  00000+0  64982-5 0  9996
2 55457  43.0027 320.3988 0001135 261.8772  98.1951 15.27575751190446
STARLINK-5020           
1 55458U 23015K   26197.71963410 -.00000973  00000+0 -25822-4 0  9997
2 55458  43.0041 320.1879 0001116 279.1587  80.9138 15.27582133190454
STARLINK-5669           
1 55459U 23015L   26197.38499431 -.00000663  00000+0 -14563-4 0  9994
2 55459  43.0058 321.9816 0001544 276.1924  83.8751 15.27573635190405
STARLINK-5678           
1 55460U 23015M   26197.38884763  .00000246  00000+0  18474-4 0  9992
2 55460  43.0033 322.0066 0001254 273.7266  86.3442 15.27577163190404
STARLINK-5646           
1 55461U 23015N   26197.38113719 -.00000013  00000+0  90552-5 0  9990
2 55461  43.0045 321.9513 0001167 265.8485  94.2233 15.27576740190407
STARLINK-5673           
1 55462U 23015P   26197.75675080  .00000274  00000+0  19469-4 0  9991
2 55462  43.0026 319.6051 0001412 275.0452  85.0239 15.27577528190463
STARLINK-5677           
1 55463U 23015Q   26197.72581661  .00014045  00000+0  66972-3 0  9991
2 55463  43.0003 330.4785 0006653 306.5974  53.4262 15.18931821190336
STARLINK-5676           
1 55464U 23015R   26197.83627343  .00000190  00000+0  16419-4 0  9990
2 55464  43.0031 319.3406 0001327 272.9308  87.1391 15.27577021190474
STARLINK-5674           
1 55465U 23015S   26197.69522979  .00014384  00000+0  53071-3 0  9998
2 55465  43.0062 320.0069 0001339 227.1659 132.9080 15.27611530190453
STARLINK-5628           
1 55466U 23015T   26197.39013032  .00000204  00000+0  16928-4 0  9998
2 55466  43.0038 322.0105 0001283 268.0696  92.0009 15.27577494190405
STARLINK-5679           
1 55467U 23015U   26197.75290016 -.00000505  00000+0 -88179-5 0  9992
2 55467  43.0022 319.5736 0001298 257.0759 102.9948 15.27571901190460
STARLINK-5672           
1 55468U 23015V   26197.38242148 -.00000482  00000+0 -79856-5 0  9991
2 55468  43.0040 321.9543 0001259 253.5798 106.4915 15.27574058190408
STARLINK-5681           
1 55469U 23015W   26197.37214095  .00000010  00000+0  98695-5 0  9998
2 55469  43.0023 321.8804 0000870 265.5641  94.5111 15.27577454190405
STARLINK-5708           
1 55470U 23015X   26197.38627737 -.00000130  00000+0  48157-5 0  9994
2 55470  43.0046 321.9857 0001237 271.1085  88.9625 15.27581374190407
STARLINK-5711           
1 55471U 23015Y   26197.75546758  .00000045  00000+0  11158-4 0  9993
2 55471  43.0032 319.5911 0001539 268.5063  91.5613 15.27576780190466
STARLINK-5705           
1 55472U 23015Z   26197.38851212 -.00000250  00000+0  46697-6 0  9994
2 55472  43.0048 314.9690 0001780 278.1720  81.8929 15.27575960190485
STARLINK-5689           
1 55474U 23015AB  26197.45036654 -.00000153  00000+0  39913-5 0  9993
2 55474  43.0027 332.8926 0001916 264.0671  95.9962 15.27576785190282
STARLINK-5650           
1 55475U 23015AC  26197.32859874 -.00000240  00000+0  80579-6 0  9999
2 55475  43.0043 322.4072 0001098 258.8834 101.1894 15.27575654190391
STARLINK-5685           
1 55477U 23015AE  26197.34482556  .00000251  00000+0  18651-4 0  9993
2 55477  43.0024 314.6431 0001056 267.5465  92.5266 15.27576802190487
STARLINK-5691           
1 55478U 23015AF  26197.36972934 -.00005137  00000+0 -17723-3 0  9998
2 55478  43.0059 311.4110 0001140 206.9309 153.1483 15.27587114190521
STARLINK-5688           
1 55479U 23015AG  26197.63592326  .00000141  00000+0  14668-4 0  9996
2 55479  43.0043 313.3829 0001519 268.2568  91.8110 15.27576454190521
STARLINK-5690           
1 55480U 23015AH  26197.41694582  .00000394  00000+0  23855-4 0  9999
2 55480  43.0049 332.5677 0001256 265.2156  94.8553 15.27577100190287
STARLINK-5694           
1 55481U 23015AJ  26197.36955789  .00000359  00000+0  22583-4 0  9991
2 55481  43.0043 333.1555 0001414 264.6720  95.3971 15.27576537190272
STARLINK-5692           
1 55483U 23015AL  26197.67465128 -.00001553  00000+0 -46933-4 0  9994
2 55483  43.0026 331.1457 0001429 267.8887  92.1801 15.27573702190323
STARLINK-5696           
1 55484U 23015AM  26197.70676898  .00000240  00000+0  18244-4 0  9991
2 55484  43.0040 331.3772 0001623 269.5719  90.4947 15.27578062190327
STARLINK-5695           
1 55485U 23015AN  26197.70420412  .00000466  00000+0  26481-4 0  9993
2 55485  43.0046 331.3603 0002047 270.5287  89.5330 15.27577221190321
STARLINK-5704           
1 55486U 23015AP  26197.76572690  .00000949  00000+0  44006-4 0  9995
2 55486  43.0050 330.9161 0002029 277.9076  82.1546 15.27579260190332
STARLINK-5701           
1 55487U 23015AQ  26197.42723803  .00000324  00000+0  21304-4 0  9996
2 55487  43.0044 332.7263 0001277 271.2189  88.8517 15.27572248190289
STARLINK-5706           
1 55488U 23015AR  26197.75156617  .00007238  00000+0  27196-3 0  9991
2 55488  43.0004 330.8502 0000837 264.9443  95.1313 15.27620564190330
STARLINK-5371           
1 55489U 23015AS  26197.75804446 -.00002755  00000+0 -90659-4 0  9998
2 55489  43.0012 330.9069 0001219 207.6362 152.4425 15.27567756190332
STARLINK-5373           
1 55490U 23015AT  26197.73232178 -.00000200  00000+0  22371-5 0  9994
2 55490  43.0034 330.7045 0001079 271.3338  88.7390 15.27576548190336
STARLINK-5364           
1 55491U 23015AU  26197.68716721  .00001099  00000+0  49457-4 0  9999
2 55491  43.0037 312.8984 0000991 257.2340 102.8401 15.27583047190536
STARLINK-5013           
1 55492U 23015AV  26197.42980108  .00000211  00000+0  17183-4 0  9990
2 55492  43.0039 332.7279 0001497 272.2542  87.8139 15.27575539190289
STARLINK-5362           
1 55493U 23015AW  26197.41053299 -.00000176  00000+0  31066-5 0  9990
2 55493  43.0027 332.5951 0000886 262.9643  97.1108 15.27575481190287
STARLINK-5344           
1 55494U 23015AX  26197.43237469  .00000374  00000+0  23133-4 0  9990
2 55494  43.0048 332.7573 0001925 277.0762  82.9870 15.27576959190286
STARLINK-5100           
1 55495U 23015AY  26197.75898693 -.00000122  00000+0  50914-5 0  9998
2 55495  43.0042 312.5933 0001372 275.7179  84.3516 15.27576643190542
STARLINK-5363           
1 55497U 23015BA  26197.43623493 -.00000966  00000+0 -25584-4 0  9990
2 55497  43.0037 332.7773 0001392 248.3253 111.7451 15.27570585190288
